[{"OBJECT_NAME":"STARLINK-4712","OBJECT_ID":"2022-111AB","EPOCH":"2026-03-09T20:01:57.887328","MEAN_MOTION":15.0883945,"ECCENTRICITY":0.00016485,"INCLINATION":53.2164,"RA_OF_ASC_NODE":273.0742,"ARG_OF_PERICENTER":73.7548,"MEAN_ANOMALY":286.3625,"EPHEMERIS_TYPE":0,"CLASSIFICATION_TYPE":"U","NORAD_CAT_ID":53798,"ELEMENT_SET_NO":999,"REV_AT_EPOCH":19370,"BSTAR":2.4526413e-5,"MEAN_MOTION_DOT":1.02e-6,"MEAN_MOTION_DDOT":0},{"OBJECT_NAME":"NOAA 16 DEB","OBJECT_ID":"2000-055BZ","EPOCH":"2026-03-09T09:57:46.840608","MEAN_MOTION":15.04968987,"ECCENTRICITY":0.00133628,"INCLINATION":98.8453,"RA_OF_ASC_NODE":286.076,"ARG_OF_PERICENTER":194.204,"MEAN_ANOMALY":165.8809,"EPHEMERIS_TYPE":0,"CLASSIFICATION_TYPE":"U","NORAD_CAT_ID":41142,"ELEMENT_SET_NO":999,"REV_AT_EPOCH":53866,"BSTAR":0.0051237154,"MEAN_MOTION_DOT":0.00073426,"MEAN_MOTION_DDOT":0}]
